{
  "type": "FeatureCollection",
  "features": [
    {
      "type": "Feature",
      "properties": {
        "norad_id": 35915,
        "name": "IRIDIUM 33 DEB",
        "group": "iridium-33-debris",
        "lat": 67.00370575363624,
        "lon": -10.951002937417774,
        "alt_km": 621.2720048978226,
        "timestamp": "2025-12-18T08:58:43.800295+00:00",
        "meta_object_name": "IRIDIUM 33 DEB",
        "meta_object_id": "1997-051TY",
        "meta_epoch": "2025-12-15T17:25:35.441760",
        "meta_mean_motion": 14.80816607,
        "meta_eccentricity": 0.00112544,
        "meta_inclination": 86.3436,
        "meta_ra_of_asc_node": 341.593,
        "meta_arg_of_pericenter": 174.6839,
        "meta_mean_anomaly": 185.4504,
        "meta_ephemeris_type": 0,
        "meta_classification_type": "U",
        "meta_norad_cat_id": 35915,
        "meta_element_set_no": 999,
        "meta_rev_at_epoch": 8130,
        "meta_bstar": 0.0011378054,
        "meta_mean_motion_dot": 8.81e-05,
        "meta_mean_motion_ddot": 0,
        "tle_line1": "1 35915U 97051TY  25349.72610465  .00008810  00000+0  11378-2 0  9997",
        "tle_line2": "2 35915  86.3436 341.5930 0011254 174.6839 185.4504 14.80816607 81301"
      },
      "geometry": {
        "type": "Point",
        "coordinates": [
          -10.951002937417774,
          67.00370575363624
        ]
      }
    },
    {
      "type": "Feature",
      "properties": {
        "norad_id": 35918,
        "name": "IRIDIUM 33 DEB",
        "group": "iridium-33-debris",
        "lat": -16.12119690676237,
        "lon": 72.35549742452386,
        "alt_km": 745.7277659490201,
        "timestamp": "2025-12-18T08:58:43.800305+00:00",
        "meta_object_name": "IRIDIUM 33 DEB",
        "meta_object_id": "1997-051UB",
        "meta_epoch": "2025-12-16T12:39:39.180384",
        "meta_mean_motion": 14.5127814,
        "meta_eccentricity": 0.0027979,
        "meta_inclination": 86.4012,
        "meta_ra_of_asc_node": 74.1902,
        "meta_arg_of_pericenter": 157.398,
        "meta_mean_anomaly": 265.1439,
        "meta_ephemeris_type": 0,
        "meta_classification_type": "U",
        "meta_norad_cat_id": 35918,
        "meta_element_set_no": 999,
        "meta_rev_at_epoch": 85262,
        "meta_bstar": 0.00077323104,
        "meta_mean_motion_dot": 3.111e-05,
        "meta_mean_motion_ddot": 0,
        "tle_line1": "1 35918U 97051UB  25350.52753681  .00003111  00000+0  77323-3 0  9990",
        "tle_line2": "2 35918  86.4012  74.1902 0027979 157.3980 265.1439 14.51278140852625"
      },
      "geometry": {
        "type": "Point",
        "coordinates": [
          72.35549742452386,
          -16.12119690676237
        ]
      }
    },
    {
      "type": "Feature",
      "properties": {
        "norad_id": 35929,
        "name": "IRIDIUM 33 DEB",
        "group": "iridium-33-debris",
        "lat": 54.71723536889535,
        "lon": -44.841950980332015,
        "alt_km": 543.4862508325587,
        "timestamp": "2025-12-18T08:58:43.800315+00:00",
        "meta_object_name": "IRIDIUM 33 DEB",
        "meta_object_id": "1997-051UN",
        "meta_epoch": "2025-12-17T15:09:24.292224",
        "meta_mean_motion": 15.02734455,
        "meta_eccentricity": 0.00173872,
        "meta_inclination": 86.3329,
        "meta_ra_of_asc_node": 310.3099,
        "meta_arg_of_pericenter": 21.8082,
        "meta_mean_anomaly": 338.3888,
        "meta_ephemeris_type": 0,
        "meta_classification_type": "U",
        "meta_norad_cat_id": 35929,
        "meta_element_set_no": 999,
        "meta_rev_at_epoch": 87853,
        "meta_bstar": 0.0021011634,
        "meta_mean_motion_dot": 0.00028257,
        "meta_mean_motion_ddot": 0,
        "tle_line1": "1 35929U 97051UN  25351.63153116  .00028257  00000+0  21012-2 0  9993",
        "tle_line2": "2 35929  86.3329 310.3099 0017387  21.8082 338.3888 15.02734455878531"
      },
      "geometry": {
        "type": "Point",
        "coordinates": [
          -44.841950980332015,
          54.71723536889535
        ]
      }
    },
    {
      "type": "Feature",
      "properties": {
        "norad_id": 36011,
        "name": "IRIDIUM 33 DEB",
        "group": "iridium-33-debris",
        "lat": -13.242752770402006,
        "lon": -146.13193214096395,
        "alt_km": 746.1337820215786,
        "timestamp": "2025-12-18T08:58:43.800326+00:00",
        "meta_object_name": "IRIDIUM 33 DEB",
        "meta_object_id": "1997-051US",
        "meta_epoch": "2025-12-11T21:42:29.079072",
        "meta_mean_motion": 14.41326157,
        "meta_eccentricity": 0.0017563,
        "meta_inclination": 86.3411,
        "meta_ra_of_asc_node": 35.7829,
        "meta_arg_of_pericenter": 218.6873,
        "meta_mean_anomaly": 266.0791,
        "meta_ephemeris_type": 0,
        "meta_classification_type": "U",
        "meta_norad_cat_id": 36011,
        "meta_element_set_no": 999,
        "meta_rev_at_epoch": 64528,
        "meta_bstar": 0.00076231,
        "meta_mean_motion_dot": 2.489e-05,
        "meta_mean_motion_ddot": 0,
        "tle_line1": "1 36011U 97051US  25345.90450323  .00002489  00000+0  76231-3 0  9992",
        "tle_line2": "2 36011  86.3411  35.7829 0017563 218.6873 266.0791 14.41326157645287"
      },
      "geometry": {
        "type": "Point",
        "coordinates": [
          -146.13193214096395,
          -13.242752770402006
        ]
      }
    },
    {
      "type": "Feature",
      "properties": {
        "norad_id": 36012,
        "name": "IRIDIUM 33 DEB",
        "group": "iridium-33-debris",
        "lat": 28.93436307739733,
        "lon": -52.76685952544239,
        "alt_km": 948.9673848059119,
        "timestamp": "2025-12-18T08:58:43.800345+00:00",
        "meta_object_name": "IRIDIUM 33 DEB",
        "meta_object_id": "1997-051UT",
        "meta_epoch": "2025-12-17T14:13:28.599168",
        "meta_mean_motion": 14.19148234,
        "meta_eccentricity": 0.02113779,
        "meta_inclination": 86.4407,
        "meta_ra_of_asc_node": 305.5764,
        "meta_arg_of_pericenter": 247.5973,
        "meta_mean_anomaly": 110.2701,
        "meta_ephemeris_type": 0,
        "meta_classification_type": "U",
        "meta_norad_cat_id": 36012,
        "meta_element_set_no": 999,
        "meta_rev_at_epoch": 65553,
        "meta_bstar": 0.0037873246,
        "meta_mean_motion_dot": 9.924e-05,
        "meta_mean_motion_ddot": 0,
        "tle_line1": "1 36012U 97051UT  25351.59269212  .00009924  00000+0  37873-2 0  9999",
        "tle_line2": "2 36012  86.4407 305.5764 0211377 247.5973 110.2701 14.19148234655534"
      },
      "geometry": {
        "type": "Point",
        "coordinates": [
          -52.76685952544239,
          28.93436307739733
        ]
      }
    },
    {
      "type": "Feature",
      "properties": {
        "norad_id": 36028,
        "name": "IRIDIUM 33 DEB",
        "group": "iridium-33-debris",
        "lat": -36.32913402035934,
        "lon": 126.75931903194723,
        "alt_km": 601.7704140311798,
        "timestamp": "2025-12-18T08:58:43.800365+00:00",
        "meta_object_name": "IRIDIUM 33 DEB",
        "meta_object_id": "1997-051VK",
        "meta_epoch": "2025-12-17T14:21:03.374208",
        "meta_mean_motion": 14.95530598,
        "meta_eccentricity": 0.00210902,
        "meta_inclination": 86.3211,
        "meta_ra_of_asc_node": 304.4126,
        "meta_arg_of_pericenter": 38.6097,
        "meta_mean_anomaly": 321.6636,
        "meta_ephemeris_type": 0,
        "meta_classification_type": "U",
        "meta_norad_cat_id": 36028,
        "meta_element_set_no": 999,
        "meta_rev_at_epoch": 87197,
        "meta_bstar": 0.0017395494,
        "meta_mean_motion_dot": 0.00019415,
        "meta_mean_motion_ddot": 0,
        "tle_line1": "1 36028U 97051VK  25351.59795572  .00019415  00000+0  17395-2 0  9992",
        "tle_line2": "2 36028  86.3211 304.4126 0021090  38.6097 321.6636 14.95530598871975"
      },
      "geometry": {
        "type": "Point",
        "coordinates": [
          126.75931903194723,
          -36.32913402035934
        ]
      }
    },
    {
      "type": "Feature",
      "properties": {
        "norad_id": 36080,
        "name": "IRIDIUM 33 DEB",
        "group": "iridium-33-debris",
        "lat": 14.098126711612288,
        "lon": -175.39316652720143,
        "alt_km": 725.92659538933,
        "timestamp": "2025-12-18T08:58:43.800382+00:00",
        "meta_object_name": "IRIDIUM 33 DEB",
        "meta_object_id": "1997-051VM",
        "meta_epoch": "2025-12-17T07:18:52.852032",
        "meta_mean_motion": 14.4662506,
        "meta_eccentricity": 0.00186257,
        "meta_inclination": 86.3197,
        "meta_ra_of_asc_node": 5.9988,
        "meta_arg_of_pericenter": 142.3309,
        "meta_mean_anomaly": 217.9202,
        "meta_ephemeris_type": 0,
        "meta_classification_type": "U",
        "meta_norad_cat_id": 36080,
        "meta_element_set_no": 999,
        "meta_rev_at_epoch": 47480,
        "meta_bstar": 0.00046202765,
        "meta_mean_motion_dot": 1.69e-05,
        "meta_mean_motion_ddot": 0,
        "tle_line1": "1 36080U 97051VM  25351.30477838  .00001690  00000+0  46203-3 0  9998",
        "tle_line2": "2 36080  86.3197   5.9988 0018625 142.3309 217.9202 14.46625060474806"
      },
      "geometry": {
        "type": "Point",
        "coordinates": [
          -175.39316652720143,
          14.098126711612288
        ]
      }
    }
  ]
}